#aV2021  9  8  0  0  0.00000000     288 DD+AD WGS84 FIT  NGA
## 2174 259200.00000000   300.00000000 59465 0.0000000000000
+   32     1  2  3  4  5  6  7  8  9 10 11 12 13 14 15 16 17
+         18 19 20 21 22 23 24 25 26 27 28 29 30 31 32  0  0
+          0  0  0  0  0  0  0  0  0  0  0  0  0  0  0  0  0
+          0  0  0  0  0  0  0  0  0  0  0  0  0  0  0  0  0
+          0  0  0  0  0  0  0  0  0  0  0  0  0  0  0  0  0
++         2  2  2  2  2  2  2  2  2  2  2  2  2  2  2  2  2
++         2  2  2  2  2  2  2  2  2  2  2  2  2  2  2  0  0
++         0  0  0  0  0  0  0  0  0  0  0  0  0  0  0  0  0
++         0  0  0  0  0  0  0  0  0  0  0  0  0  0  0  0  0
++         0  0  0  0  0  0  0  0  0  0  0  0  0  0  0  0  0
%c cc cc ccc ccc cccc cccc cccc cccc ccccc ccccc ccccc ccccc
%c cc cc ccc ccc cccc cccc cccc cccc ccccc ccccc ccccc ccccc
%f  0.0000000  0.000000000  0.00000000000  0.000000000000000
%f  0.0000000  0.000000000  0.00000000000  0.000000000000000
%i    0    0    0    0      0      0      0      0         0
%i    0    0    0    0      0      0      0      0         0
/*      NGA, ST. LOUIS,MO.                                  
/*   EPHEMERIS COMPUTED FROM 2 DAYS OF DATA                 
/*   EPOCHA v7 SMOOTHER                                     
/*   G2139 IERS2010 SATIGS SATAPC                           
*  2021  9  8 14  5  0.00000000
P  1  20852.453459  14251.445525  -9025.171703    573.637866                    
V  1 -10786.937461  -2416.028093 -29316.399522     -0.111243                    
P  2    827.911980 -15684.679460  22068.808937   -631.159262                    
V  2  25573.649745   6852.924738   4105.996145     -0.021572                    
P  3  12215.606771  19976.498986  12535.787203   -282.285334                    
V  3    776.113840  16133.441384 -26146.163011     -0.131565                    
P  4  13323.946944   8512.849777  21354.840427   -204.301739                    
V  4 -21025.149679  17095.728900   6240.267278     -0.000345                    
P  5  -6110.173208 -25747.378573   -801.667547    -53.742248                    
V  5   2830.139435  -1452.729572  31761.474248     -0.012475                    
P  6  14482.959788  -9101.037886  20391.748661     70.578872                    
V  6  23842.748566   9576.615498 -12641.875055      0.071531                    
P  7  25642.613267   5750.174466  -5006.813597    241.274600                    
V  7   5381.936851   4860.675941  30378.976804      0.072792                    
P  8   3187.722237  16202.343905 -20745.691917    -35.707179                    
V  8 -20536.608112  16573.627266  10097.783290     -0.014364                    
P  9  20740.586057  -2685.594805  16320.390907   -360.600347                    
V  9 -14440.107533  15182.051143  20739.709932     -0.006798                    
P 10 -12627.729950  10317.950331 -20787.504748   -199.075366                    
V 10  -5585.993505 -26128.998867  -9795.974342     -0.078303                    
P 11   2739.750521 -15249.434594  21560.033073     41.191439                    
V 11  25310.082050  10528.771695   4216.745388      0.021282                    
P 12 -10366.155487 -21275.377483  11939.788829    -94.459293                    
V 12    453.760083 -15613.012046 -26735.915763     -0.054345                    
P 13   5814.395106 -18503.810361 -18220.514272    182.624477                    
V 13  20117.868801 -10999.687899  17874.453112      0.053228                    
P 14  13252.494946 -10428.119644 -20508.534725      5.806194                    
V 14   4386.171313  25718.712278 -10293.978556     -0.082239                    
P 15  -5945.829521 -16100.336278 -20582.461773   -122.573204                    
V 15  18315.388308 -17747.303968   9102.315157      0.027271                    
P 16   -256.677835  26036.570462   3546.276986   -387.190028                    
V 16  -3238.492860  -4609.441596  31877.105717     -0.063389                    
P 17  22663.036276 -12901.489915  -4624.127103    501.666711                    
V 17  -3868.309626   5544.451134 -31489.493687      0.056284                    
P 18 -25147.618115  -4124.651060  -7661.429228    324.616997                    
V 18  -8181.216088  -5671.580900  29865.305419     -0.041357                    
P 19  20361.780866 -16494.605579   3496.306485     50.274288                    
V 19   5277.663709   -733.216593 -31877.027983      0.049798                    
P 20    302.388924 -24323.769613  10939.832813    519.243918                    
V 20   7080.459823  12274.905375  26760.153168     -0.001824                    
P 21  15696.668138  15196.360004 -14775.548684    141.645632                    
V 21 -19584.681209  -3450.661792 -22748.484336      0.020078                    
P 22  10830.377133  23823.904411   5312.960846   -518.243444                    
V 22  -1390.451522   7167.034486 -30094.996632      0.093138                    
P 23 -15611.975417  -2506.927695 -21374.736324     60.149514                    
V 23  -4869.344844 -26622.764149   6617.001144     -0.049137                    
P 24 -18033.726521 -15092.267862 -12989.327300    229.832600                    
V 24  16071.008598   1926.829495 -24650.952183      0.090662                    
P 25 -15104.206047 -11764.015354  18257.602024    204.882475                    
V 25  -2716.617969 -23523.489339 -16893.000264      0.063354                    
P 26  -6539.362818  20761.663721  14967.638159    131.916403                    
V 26  -6838.353143 -18222.734672  22481.131448      0.042596                    
P 27  -7049.112765  19999.171747 -15937.883584   -190.026534                    
V 27 -16504.990557  11479.350105  22311.624559     -0.053642                    
P 28  10330.048695 -17099.964919 -17053.296887    504.961581                    
V 28   3381.993765  22431.344676 -19626.182926     -0.070538                    
P 29 -19362.323640   -942.356371  18139.487561   -408.604798                    
V 29  18024.226481 -14411.186339  18381.191596     -0.057174                    
P 30  21504.029350  -3640.545422 -15246.550684   -470.777461                    
V 30  17257.995190   9300.343500  21782.065876     -0.038896                    
P 31 -13210.880730  10418.839051  20559.403826   -138.670649                    
V 31 -24144.440761 -10275.639633  -9798.858606     -0.020304                    
P 32 -21028.836129  15909.886496  -2129.535524      1.289532                    
V 32    199.127631  -4178.079249 -31655.187092     -0.032661                    
EOF
